0 DELTA 1 DEB
1 12194U 78026AK  19061.84269808 +.00003166 +00000-0 +36173-3 0  9991
2 12194 098.9156 016.9382 0027841 284.8731 074.9398 14.86657836993286
0 DELTA 1 DEB
1 12193U 78026AJ  19060.41599197  .00000032  00000-0  57386-4 0  9998
2 12193  98.8888  17.8209 0261036 140.6749 221.3682 13.75091608883938
0 DELTA 1 DEB
1 12190U 78026AF  19061.92233873 -.00000201 +00000-0 -10628-3 0  9995
2 12190 098.7435 043.1129 0014524 079.3597 335.2607 14.01050561943721
0 DELTA 1 DEB
1 12189U 78026AE  19060.79392907 +.00000105 +00000-0 +11088-3 0  9993
2 12189 098.9801 135.7190 0069204 109.9001 012.7534 13.93074030263705
0 DELTA 1 DEB
1 12185U 78026AA  19060.23181639  .00000118  00000-0  85576-4 0  9994
2 12185  99.1409 313.2718 0094261 240.6779 238.0657 14.12462497953056
0 DELTA 1 DEB
1 12183U 78026Y   19060.46594294  .00000060  00000-0  54870-4 0  9991
2 12183  98.9203  39.6340 0037382 143.9738 336.0251 14.13646459959782
0 DELTA 1 DEB
1 12181U 78026W   19061.91509987 +.00000025 +00000-0 +27262-4 0  9991
2 12181 098.6028 038.8012 0101558 093.1360 268.1446 14.25102188977187
0 DELTA 1 DEB
1 12179U 78026U   19061.92534934 -.00000103 +00000-0 -30704-4 0  9993
2 12179 099.2375 302.4021 0171851 330.2899 094.8120 14.04068378939833
0 DELTA 1 DEB
1 12178U 78026T   19061.95057421 -.00000120 +00000-0 -55622-4 0  9991
2 12178 099.3503 200.4353 0063009 146.3848 342.7743 13.93624954934023
0 DELTA 1 DEB
1 12177U 78026S   19061.53164517  .00000129  00000-0  12077-3 0  9992
2 12177  98.7038 251.8356 0155696 280.9029 139.7531 13.92394011929256
0 DELTA 1 DEB
1 12176U 78026R   19060.37312747 -.00000027  00000-0  13434-4 0  9999
2 12176  98.9956 357.7545 0064677 317.5658 152.0428 13.88433719928699
0 DELTA 1 DEB
1 12175U 78026Q   19061.49346240  .00000274  00000-0  23052-3 0  9996
2 12175  99.4347 233.9243 0064714  81.6992 344.3093 13.95786697935731
0 DELTA 1 DEB
1 12174U 78026P   19061.92762876 +.00000017 +00000-0 +35581-4 0  9996
2 12174 098.9905 039.2120 0041576 238.0615 180.3022 14.09359962956523
0 DELTA 1 DEB
1 12172U 78026M   19061.52763073  .00000069  00000-0  48565-4 0  9993
2 12172  98.7549  45.1048 0061546  37.5714  77.7789 14.23583660973033
0 DELTA 1 DEB
1 12171U 78026L   19061.86841163 -.00000236 +00000-0 -12199-3 0  9997
2 12171 098.9935 024.9191 0036165 282.3552 130.4218 14.03270958948853
0 DELTA 1 DEB
1 12170U 78026K   19060.53416494  .00000108  00000-0  72709-4 0  9994
2 12170  98.8464  41.4584 0045759 100.7038  17.2140 14.18771541965113
0 DELTA 1 DEB
1 12169U 78026J   19061.52217955  .00000090  00000-0  50528-4 0  9998
2 12169  98.6084  43.8501 0070953 343.8939 143.2365 14.30226075979548
0 DELTA 1 DEB
1 12168U 78026H   19061.71723736 +.00000009 +00000-0 +36482-4 0  9990
2 12168 098.9509 326.3323 0175506 284.8606 073.3175 13.92329615929962
0 DELTA 1 DEB
1 12167U 78026G   19061.92781240 +.00000056 +00000-0 +46946-4 0  9994
2 12167 098.4760 073.0043 0164155 246.0620 174.6106 14.12495741955622
0 DELTA 1 DEB
1 12166U 78026F   19061.91987522 +.00000057 +00000-0 +50811-4 0  9990
2 12166 098.8841 043.0797 0037020 236.9959 176.0095 14.16584639962542
0 DELTA 1 DEB
1 12165U 78026E   19061.89215395  .00000047  00000-0  51013-4 0  9992
2 12165  98.9790  42.2419 0044450 131.2988 291.9188 14.10373648744561
0 DELTA 1 DEB
1 12164U 78026D   19061.93524461 +.00000149 +00000-0 +67185-4 0  9993
2 12164 098.5970 046.7562 0066961 076.8496 336.6850 14.34149285124719
0 SL-3 R/B
1 12155U 81008B   19061.91483000 +.00001099 +00000-0 +34134-4 0  9991
2 12155 081.1617 043.4186 0029212 012.4392 347.7559 15.32006563056094
0 SL-8 DEB
1 12151U 81006C   19061.72710398 -.00000060 +00000-0 +22195-4 0  9999
2 12151 065.8230 136.3115 0021400 306.6133 198.9679 13.73807347910917
0 SL-8 R/B
1 12150U 81006B   19060.21944506 -.00000066  00000-0  14961-4 0  9999
2 12150  65.8235 329.3401 0062244 262.6899  96.7087 13.77043678914953
0 COSMOS 1241
1 12149U 81006A   19061.88545819 -.00000090 +00000-0 -10430-4 0  9990
2 12149 065.8232 202.3820 0018648 317.4667 187.1537 13.72169458909379
0 SL-8 R/B
1 12139U 81003B   19061.95129356 +.00001923 +00000-0 +92306-4 0  9994
2 12139 082.9505 001.4575 0465620 305.5486 050.3131 14.55979814937671
0 COSMOS 1238
1 12138U 81003A   19061.91040971 +.00000424 +00000-0 +29321-4 0  9996
2 12138 082.9557 134.9768 0712266 353.2859 005.9129 13.95235374897002
0 SL-8 R/B
1 12115U 80102J   19061.68910292 -.00000030 +00000-0 -87083-4 0  9990
2 12115 073.9898 139.7251 0019914 354.5140 119.9363 12.52322606745827
0 COSMOS 1235
1 12114U 80102H   19061.93389139 -.00000022 +00000-0 -37046-4 0  9992
2 12114 073.9965 015.4676 0032589 179.9645 236.1210 12.56187063751150
0 COSMOS 1234
1 12113U 80102G   19061.90270626 -.00000025 +00000-0 -54438-4 0  9995
2 12113 073.9974 358.8805 0034880 157.7933 258.7674 12.56665363751739
0 COSMOS 1233
1 12112U 80102F   19061.95769826 -.00000016 +00000-0 +34037-5 0  9997
2 12112 073.9947 038.1134 0029714 199.1332 222.9709 12.55537980750254
0 COSMOS 1232
1 12111U 80102E   19061.90937351 -.00000026 +00000-0 -57993-4 0  9998
2 12111 073.9968 012.1475 0033012 174.6841 241.4172 12.56283555751310
0 COSMOS 1231
1 12110U 80102D   19061.97624799 -.00000019 +00000-0 -18993-4 0  9992
2 12110 073.9973 343.8094 0036920 144.9839 295.4963 12.57089700752443
0 COSMOS 1230
1 12109U 80102C   19061.85298118 -.00000006 +00000-0 +60082-4 0  9990
2 12109 073.9956 316.4746 0040882 116.7658 312.7759 12.57876408753525
0 COSMOS 1229
1 12108U 80102B   19061.90275368 -.00000023 +00000-0 -39048-4 0  9995
2 12108 073.9963 019.4149 0032134 190.5580 230.5850 12.56075217750988
0 COSMOS 1228
1 12107U 80102A   19061.97054760 +.00000001 +00000-0 +10043-3 0  9999
2 12107 073.9954 292.0597 0044749 077.7104 051.5262 12.58600319754549
0 OPS 4988 DEB
1 12099U 65016K   19061.89382160 +.00000035 +00000-0 +56599-4 0  9999
2 12099 070.0751 221.2790 0020869 216.7492 202.5983 14.02983145753294
0 SL-8 R/B
1 12092U 80099B   19060.76749314  .00000030  00000-0  15161-4 0  9998
2 12092  82.9433 141.1475 0030784 159.3357 317.6852 13.76964612919964
0 COSMOS 1226
1 12091U 80099A   19060.81952813 +.00000009 +00000-0 -57802-5 0  9999
2 12091 082.9441 176.6601 0032267 289.8329 180.0311 13.74494601916729
0 SL-8 R/B
1 12088U 80097B   19061.93181874 +.00000158 +00000-0 +14318-3 0  9995
2 12088 082.9393 238.8091 0050021 120.5920 240.0186 13.76972947920831
0 COSMOS 1225
1 12087U 80097A   19061.93161451 +.00000013 +00000-0 -18900-5 0  9997
2 12087 082.9437 285.9911 0055079 279.6748 210.4517 13.74494190917545
0 DELTA 1 DEB
1 12000U 73086GL  19061.42004934 -.00000014 +00000-0 +23553-3 0  9997
2 12000 102.0325 031.5016 0021036 179.8622 343.5285 12.36184833218775
0 TRANSIT 11 DEB
1 11991U 66005H   19060.66477094 +.00000123 +00000-0 +95638-4 0  9998
2 11991 090.2287 284.7328 0179648 200.2278 221.3987 13.80960093653310
0 COSMOS 1176 FUEL CORE
1 11971U 80034D   19061.96577132 -.00000083 +00000-0 +68518-5 0  9996
2 11971 064.8350 332.6987 0051701 285.1028 156.9899 13.96858972973605
0 SL-3 R/B
1 11963U 80073B   19061.94349523 +.00000073 +00000-0 +33123-4 0  9990
2 11963 081.2750 239.7723 0077092 112.3692 248.5671 14.09705497978134
0 METEOR 2-6
1 11962U 80073A   19061.89539181 +.00000056 +00000-0 +23860-4 0  9992
2 11962 081.2256 171.5845 0037227 119.6068 240.8821 14.10572910979200
0 SL-8 R/B
1 11883U 80058J   19061.91598328 +.00000080 +00000-0 +85339-3 0  9993
2 11883 074.0096 067.6806 0134347 255.6447 150.6541 12.23933262726726
0 COSMOS 1199
1 11882U 80058H   19061.85274212 -.00000023 +00000-0 -56368-4 0  9998
2 11882 074.0170 205.0462 0037066 288.6269 186.8711 12.41167003751069
0 COSMOS 1198
1 11881U 80058G   19061.88626632 -.00000010 +00000-0 +37355-4 0  9997
2 11881 074.0157 115.3451 0022360 194.3136 217.4414 12.43752525754707
0 COSMOS 1197
1 11880U 80058F   19061.93661682 -.00000014 +00000-0 +14421-4 0  9999
2 11880 074.0187 038.2897 0012482 071.5462 349.4105 12.45969828757847
0 COSMOS 1196
1 11879U 80058E   19061.87694394 -.00000012 +00000-0 +22845-4 0  9993
2 11879 074.0197 315.0858 0005517 254.2307 180.8908 12.48367152240040
0 COSMOS 1195
1 11878U 80058D   19061.90334105 -.00000000 +00000-0 +10058-3 0  9996
2 11878 074.0152 237.6388 0015799 139.0149 329.4229 12.50573291764396
0 COSMOS 1194
1 11877U 80058C   19061.68063016 -.00000034 +00000-0 -11476-3 0  9993
2 11877 074.0192 161.4414 0026558 039.6220 320.6767 12.52756190767388
0 COSMOS 1193
1 11876U 80058B   19061.58030609 -.00000001 +00000-0 +94550-4 0  9991
2 11876 074.0159 085.7280 0039646 315.0849 213.0708 12.54906362770394
0 COSMOS 1192
1 11875U 80058A   19061.95964635 -.00000031 +00000-0 -86470-4 0  9992
2 11875 074.0214 005.4341 0050268 215.0525 208.6226 12.57162731773604
0 SL-8 R/B
1 11870U 80056B   19060.51185189 -.00000001  00000-0  85466-5 0  9996
2 11870  74.0537 144.7498 0017395 300.7997  59.1444 14.36925134 24193
0 COSMOS 1190
1 11869U 80056A   19061.90945944 +.00000027 +00000-0 +19045-4 0  9997
2 11869 074.0451 225.9414 0013686 358.3659 001.7445 14.33616153998604
0 SL-3 R/B
1 11822U 80044B   19060.50812276  .00003308  00000-0  61945-4 0  9990
2 11822  81.2311 188.7991 0010468 296.7700  63.2475 15.48281219128914
0 SL-8 R/B
1 11804U 80039B   19061.86601309 +.00000014 +00000-0 -95639-6 0  9998
2 11804 082.9463 348.2096 0019715 297.8418 062.0741 13.76189858946894
0 COSMOS 1181
1 11803U 80039A   19061.95643462 +.00000019 +00000-0 +39833-5 0  9990
2 11803 082.9460 025.3792 0023760 096.7728 321.3727 13.73979872944221
0 COSMOS 1176
1 11788U 80034A   19061.90497548 -.00000083 +00000-0 +66450-5 0  9991
2 11788 064.8275 219.8061 0047617 337.5002 022.3972 13.92952982970855
0 COSMOS 1174 DEB
1 11778U 80030K   19060.81930911  .00000025  00000-0  46654-4 0  9999
2 11778  66.4802  63.4376 0472287 198.4538 159.8892 13.81498091934461
0 COSMOS 1174
1 11765U 80030A   19061.93062130 +.00000607 +00000-0 +38147-4 0  9992
2 11765 066.0871 024.6041 0557917 294.5076 059.8829 14.39272630994059
0 SL-8 DEB
1 11752U 80026C   19061.57408052 -.00000074  00000-0  63456-5 0  9991
2 11752  65.8423 148.6420 0019118 178.1223 279.0637 13.75044744953050
